[{"OBJECT_NAME":"STARLINK-1559","OBJECT_ID":"2020-055BC","EPOCH":"2026-03-09T05:36:23.522976","MEAN_MOTION":15.29461733,"ECCENTRICITY":0.0004229,"INCLINATION":53.0254,"RA_OF_ASC_NODE":76.0659,"ARG_OF_PERICENTER":33.971,"MEAN_ANOMALY":326.1559,"EPHEMERIS_TYPE":0,"CLASSIFICATION_TYPE":"U","NORAD_CAT_ID":46077,"ELEMENT_SET_NO":999,"REV_AT_EPOCH":30951,"BSTAR":0.0014778793,"MEAN_MOTION_DOT":0.00042685,"MEAN_MOTION_DDOT":0},{"OBJECT_NAME":"STARLINK-32248","OBJECT_ID":"2024-171V","EPOCH":"2026-03-09T22:30:46.406304","MEAN_MOTION":15.30202476,"ECCENTRICITY":8.746e-5,"INCLINATION":53.1588,"RA_OF_ASC_NODE":321.4901,"ARG_OF_PERICENTER":160.7344,"MEAN_ANOMALY":199.369,"EPHEMERIS_TYPE":0,"CLASSIFICATION_TYPE":"U","NORAD_CAT_ID":61219,"ELEMENT_SET_NO":999,"REV_AT_EPOCH":8331,"BSTAR":0.00019426748,"MEAN_MOTION_DOT":5.399e-5,"MEAN_MOTION_DDOT":0}]
